{"type":"FeatureCollection","features":[{"type":"Feature","properties":{"zoneName":"NO-NO1","countryKey":"NO","countryName":"Norway"},"geometry":{"type":"MultiPolygon","coordinates":[[[[10.387903879038817,59.55040765714435],[10.65790657906581,59.59477122496605],[10.596705967059705,59.42304128501105],[10.823508235082386,59.164015292245594],[10.902709027090282,59.196930197403645],[11.298017754860162,59.11594124495081],[11.3707137071371,59.101047647595436],[11.453514535145388,58.896402802482385],[11.665916659166612,58.920731210642685],[11.806318063180669,59.294243830044806],[11.676716767167704,59.5589941541421],[11.903519035190385,59.76936333058697],[11.84951849518498,59.87240129455998],[12.144721447214494,59.898160785553216],[12.447124471244734,60.05128664867976],[12.609126091260947,60.48633582989909],[12.335523355233562,60.82836462697614],[12.281522815228186,61.015836478093675],[12.670670550143965,61.054228230276124],[12.872743374997839,61.35573371497873],[12.571033419002276,61.569992025076544],[12.420235853452628,61.56509669999902],[12.137443265721197,61.72203140767103],[12.298257169719612,62.26429740073408],[10.956709567095686,62.628666830837716],[8.404284042840459,61.48236948163809],[8.109081090810946,61.19901508071234],[9.60309603096033,60.307450475779305],[9.484294842948458,60.2731044877883],[8.685086850868544,60.23017200279955],[8.839888398884,60.16148002681756],[9.675096750967526,59.41588587084627],[10.305103051030528,59.68492944344243],[10.387903879038817,59.55040765714435]]]]}},{"type":"Feature","properties":{"zoneName":"NO-NO2","countryKey":"NO","countryName":"Norway"},"geometry":{"type":"MultiPolygon","coordinates":[[[[5.27945279452797,59.292812747211855],[5.207452074520774,59.41588587084627],[5.167851678516797,59.19549911457068],[5.27945279452797,59.292812747211855]]],[[[5.499054990549922,59.80370931857797],[5.419854198541998,59.93823110487605],[5.250652506525086,59.909609448216884],[5.311853118531218,59.79512282158022],[5.499054990549922,59.80370931857797]]],[[[5.661056610566135,60.0670285598423],[5.463054630546338,60.052717731512715],[5.509855098551014,59.89959186838618],[5.661056610566135,60.0670285598423]]],[[[8.685086850868544,60.23017200279955],[6.541378043022702,60.14697004502801],[6.096660966609704,60.0913569680026],[5.963459634596376,59.95683518170452],[5.646656466564679,59.85379721773151],[5.895058950589544,59.762207916422184],[5.747457474574759,59.674911863611726],[5.488254882548858,59.737879508261884],[5.182251822518253,59.51176842065448],[5.473854738547402,59.27850191888227],[5.585455854558575,59.41588587084627],[5.668256682566863,59.30426140987551],[6.078660786607884,59.40157504251668],[6.25146251462516,59.277070836049305],[5.873458734587359,59.08673681926585],[6.035460354603572,58.904989299480135],[5.736657366573695,58.929317707640436],[5.549455494554962,59.038080002945264],[5.477454774547766,58.75472560201952],[5.704257042570447,58.52145910024731],[6.003060030600324,58.389799479615135],[6.697866978669822,58.225224953824934],[6.532265322653245,58.120755907018975],[7.000270002700063,58.0305976885426],[7.579875798758025,58.01771794304598],[7.914679146791485,58.0821166705291],[8.029880298803022,58.225224953824934],[8.123481234812374,58.10215183019052],[8.501485014850175,58.25670877615002],[9.45189451894521,58.83343515783223],[9.271892718927205,58.83343515783223],[9.689496894968983,58.95650828146664],[9.955899558995611,58.95650828146664],[10.470704707047105,59.248449179390136],[10.481504815048169,59.411592622347385],[10.387903879038817,59.55040765714435],[10.305103051030528,59.68492944344243],[9.675096750967526,59.41588587084627],[8.839888398884,60.16148002681756],[8.685086850868544,60.23017200279955]]]]}},{"type":"Feature","properties":{"zoneName":"NO-NO3","countryKey":"NO","countryName":"Norway"},"geometry":{"type":"MultiPolygon","coordinates":[[[[12.298257169719612,62.26429740073408],[12.057443445406413,62.611364377099854],[12.13670640997934,62.74855027732223],[12.074910112915699,62.901908244473404],[12.218464612767876,63.00056933709909],[11.9732519005652,63.26732575153612],[12.213343183256953,63.476533923176234],[12.150580731764919,63.591100302883916],[12.682769226066599,63.97258924318265],[12.925676145774485,64.05902957763163],[11.816770723934091,64.88499668999147],[11.842318423184253,64.80248165410141],[11.39591395913962,64.7065991042932],[11.518315183151856,64.57350840082809],[11.377913779137828,64.3974852123742],[11.16191161911621,64.4461420286948],[10.956709567095686,64.60356114032021],[10.891908919089218,64.47476368535396],[10.603906039060405,64.45186636002663],[10.607506075060769,64.36600139004912],[10.168301683016864,64.198564698593],[9.93789937899382,63.95957386548896],[10.19710197101972,63.93810762299459],[9.545495454954562,63.774964180037344],[9.545495454954562,63.6662018847325],[9.797497974979763,63.691961375725754],[9.919899198992027,63.51450710443892],[10.4167041670417,63.57890583192204],[10.90990909909101,63.730600612215625],[11.075510755107587,63.83650074185455],[10.963909639096414,63.948125202825295],[11.262712627126291,64.03542125563575],[11.4967149671497,64.02111042730617],[11.097110971109743,63.889450806674006],[11.464314643146452,63.80215475386355],[11.032310323103246,63.71915194955196],[10.672306723067265,63.54885309242992],[10.917109171091738,63.46585028811833],[10.798307983079866,63.41719347179776],[10.301503015030164,63.46585028811833],[10.092700927009304,63.43865971429213],[10.099900999010003,63.32560417048842],[9.833498334983375,63.328466336154335],[9.959499594995975,63.42721105162846],[9.700297002970046,63.64473564223813],[9.160291602916061,63.507351690274135],[9.264692646926505,63.36281232414534],[8.821888218882208,63.43007321729438],[8.476284762847655,63.29412034816333],[8.544685446854487,63.13240798803905],[8.166681666816686,63.11523499404355],[8.620286202862047,62.87767524377246],[8.328683286832899,62.880537409438375],[8.339483394833962,62.95924696525108],[8.087480874808762,63.10951066271171],[7.972279722797253,62.976419959246584],[7.5006750067501,62.91059014893051],[7.270272702727056,63.013628112903504],[6.910269102691046,62.92919422575896],[6.971469714697179,62.72598046347888],[7.313473134731368,62.74458454030734],[7.385473854738564,62.687341226989005],[8.073080730807334,62.7803616111313],[7.522275222752256,62.674461481492386],[7.518675186751892,62.54137077802726],[7.093870938709415,62.65156415616505],[6.777067770677718,62.650133073332086],[6.61146611466117,62.561405937688676],[6.319863198632021,62.6086316711763],[6.305463054630565,62.45979905654863],[6.708667086670886,62.45121255955088],[6.028260282602844,62.305242110589134],[5.927459274592763,62.19934198095022],[5.43065430654309,62.18646223545359],[5.452254522545246,62.06195802898621],[5.182251822518253,62.21222172644684],[5.070650706507081,62.163564910126254],[5.311853118531218,62.02618095816226],[5.157051570515733,61.895952420363045],[5.427054270542726,61.93745382251885],[6.521465214652181,61.81438069888442],[5.736657366573695,61.835846941378804],[5.362253622536258,61.90597000019376],[5.337053370533738,61.84157127271064],[4.973449734497365,61.73853330873763],[4.991449914499157,61.6297710134328],[5.358653586535894,61.55392362328601],[4.948249482494845,61.41653967132201],[5.020250202502041,61.216188074707844],[5.357402552258215,61.08757872870523],[5.135451354513577,61.07737303991088],[5.113851138511421,60.961455330441254],[6.370263702637061,61.05590679741651],[6.413464134641373,61.06878654291313],[6.575465754657557,61.0630622115813],[6.665466654666574,61.194721832213474],[6.697866978669822,61.19185966654756],[7.295472954729576,61.83870910704472],[8.404284042840459,61.48236948163809],[10.956709567095686,62.628666830837716],[12.298257169719612,62.26429740073408]]],[[[4.951849518495209,61.89738350319601],[4.915849158491596,61.78146579372638],[5.124651246512485,61.85588210104022],[4.951849518495209,61.89738350319601]]],[[[5.704257042570447,62.298086696424335],[5.545855458554598,62.19218656678542],[5.779857798578007,62.20792847794796],[5.704257042570447,62.298086696424335]]],[[[6.06786067860682,62.34817459557789],[5.805058050580527,62.36248542390747],[5.873458734587359,62.255154211435595],[6.06786067860682,62.34817459557789]]],[[[7.680676806768105,63.0207835270683],[7.39987399874002,63.05512951505929],[7.52587525875262,62.946367219754464],[7.680676806768105,63.0207835270683]]],[[[8.098280982809854,63.34277716448392],[8.004680046800502,63.47300570228313],[7.806678066780705,63.37139882114309],[8.098280982809854,63.34277716448392]]],[[[8.9658896588966,63.6561843049018],[8.544685446854487,63.60180315724938],[8.278282782827858,63.46585028811833],[8.50508505085054,63.43436646579326],[9.174691746917489,63.567457169258375],[8.9658896588966,63.6561843049018]]],[[[8.796687966879688,63.805016919529464],[8.314283142831442,63.66763296756547],[8.742687426874284,63.687668127226885],[8.796687966879688,63.805016919529464]]],[[[11.230312303123043,64.610716554485],[11.179911799118003,64.507678590512],[11.417514175141775,64.473332602521],[11.230312303123043,64.610716554485]]],[[[11.205112051120523,64.90981286657329],[11.089910899109015,64.94988318589613],[10.827108271082722,64.85686280175383],[11.205112051120523,64.90981286657329]]],[[[11.69831698316986,64.9126750322392],[11.230312303123043,64.82251681376283],[11.478714787147908,64.81106815109916],[11.694716947169496,64.91124394940626],[11.69831698316986,64.9126750322392]]],[[[11.69831698316986,64.9126750322392],[11.561515615156168,64.95274535156204],[11.244712447124499,64.85686280175383],[11.69831698316986,64.9126750322392]]]]}},{"type":"Feature","properties":{"zoneName":"NO-NO4","countryKey":"NO","countryName":"Norway"},"geometry":{"type":"MultiPolygon","coordinates":[[[[29.041943726896648,69.01076444724204],[29.24129241292414,69.11576531263782],[29.33489334893352,69.2774776727621],[29.900099000990025,69.35761831140778],[30.12330123301234,69.44205219855232],[30.296102961029618,69.6209375526721],[30.512105121051235,69.53650366552756],[30.854108541085424,69.52791716852983],[30.92610926109262,69.67245653465861],[30.839708397083996,69.80554723812375],[30.166501665016654,69.87996354543756],[30.209702097020994,69.78408099562935],[30.000900009000105,69.72540659947808],[29.680496804968072,69.73542417930878],[29.684096840968436,69.97012176391394],[28.611286112861137,70.12038546137458],[28.755287552875558,70.16761119486219],[29.22689226892271,70.12038546137458],[30.159301593015954,70.07172864505398],[30.54810548105482,70.24918291634083],[31.07731077310774,70.28495998716477],[30.92610926109262,70.45668992711978],[30.81090810908111,70.41518852496398],[29.993699936999377,70.71285375421931],[29.680496804968072,70.61983337007703],[29.77769777697779,70.72716458254891],[29.35289352893531,70.69568076022381],[29.40329403294035,70.78440789586725],[29.0576905769058,70.88458369417432],[28.794887948879506,70.87313503151066],[28.524885248852513,70.72144025121708],[28.247682476824792,70.41518852496398],[27.848078480784835,70.48244941811302],[28.233282332823336,70.61554012157816],[28.301683016830196,70.70283617438861],[27.65007650076504,70.6069536245804],[28.12888128881289,70.73575107954665],[27.761677616776183,70.79156331003202],[28.222482224822272,70.78583897870018],[28.54648546485467,70.98046624398253],[28.18648186481866,70.99620815514507],[28.190081900819024,71.08636637362144],[27.87687876878772,71.03770955730087],[27.56727567275675,71.09781503628511],[27.552875528755294,70.95470675298927],[27.120871208712117,70.92179184783123],[27.534875348753502,70.84594445768445],[27.13887138871391,70.74004432804554],[27.13167131671318,70.62555770140887],[26.505265052650543,70.36223846014454],[26.656466564665664,70.63986852973844],[26.34326343263433,70.6484550267362],[26.642066420664236,70.70712942288748],[26.692466924669276,70.95613783582223],[26.37566375663758,70.86884178301179],[26.012060120601234,70.62555770140887],[25.42165421654218,70.3250303064876],[25.540455404554052,70.2978397326614],[25.13725137251373,70.07888405921878],[24.964449644496455,70.08031514205175],[24.97884978849791,70.2291477566794],[25.202052020520227,70.30642622965917],[25.24525245252454,70.52824406876769],[25.072450724507263,70.50391566060739],[25.92565925659258,70.85596203751516],[25.42165421654218,70.86025528601402],[25.24525245252454,70.79156331003202],[25.140851408514095,70.92179184783123],[24.665646656466578,70.9776040783166],[24.615246152461538,70.78011464736835],[24.395643956439585,70.86741070017882],[24.29124291242914,70.76437273620581],[24.54324543245434,70.74576865937738],[24.615246152461538,70.62555770140887],[24.352443524435273,70.69138751172494],[24.111241112411136,70.54827922842912],[24.31644316443166,70.48244941811302],[23.916839168391704,70.50963999193922],[23.513635136351382,70.36510062581044],[23.57123571235715,70.2906843184966],[23.27603276032761,70.22485450818053],[23.40203402034021,70.14042062103599],[23.17523175231753,70.09176380471541],[23.538835388353903,70.02450291156637],[23.330033300333014,69.94865552141957],[23.031230312303137,70.0302272428982],[22.96642966429667,70.20768151418503],[22.37242372423725,70.2506139991738],[22.268022680226835,70.2949775669955],[21.821618216182173,70.26921807600223],[21.875618756187578,70.14757603520079],[21.587615876158793,70.312150560991],[21.209612096120992,70.20911259701799],[21.512015120151233,70.09176380471541],[21.839618396183994,70.05455565105848],[21.904419044190462,69.82558239778515],[21.393213932139332,70.02879616006524],[21.170011700117016,69.8756702969387],[20.51120511205113,69.76977016729978],[20.4968049680497,69.57800506768336],[20.27720277202775,69.39196429939878],[20.190801908019097,69.41343054189315],[20.417604176041777,69.88998112526829],[20.16920169201694,69.94150010725477],[19.855998559985608,69.62666188400394],[19.67599675996763,69.68104303165637],[19.78399783997841,69.80411615529079],[19.099990999910005,69.73685526214175],[18.959589595895977,69.56083207368786],[19.157591575915774,69.37765347106921],[19.34839348393487,69.37908455390215],[19.477994779947807,69.2202343594438],[19.301593015930166,69.22452760794266],[19.34839348393487,69.34473856591114],[19.01359013590138,69.39768863073061],[18.85158851588517,69.55224557669013],[18.498784987849888,69.52219283719799],[18.466384663846668,69.44491436421825],[18.934389343893457,69.33472098608044],[18.603186031860332,69.30037499808944],[18.30078300783009,69.48641576637402],[18.001980019800214,69.28606416975987],[18.08118081180814,69.16871537745729],[17.677976779767818,69.09143690447752],[17.425974259742617,68.89967180486113],[17.69597695976961,68.89108530786336],[17.23517235172355,68.75656352156528],[16.630366303663067,68.6420768949286],[16.53316533165335,68.43886313264854],[17.047970479704816,68.43456988414965],[17.54477544775449,68.53045243395786],[17.541175411754125,68.42884555281782],[16.8247682476825,68.32437650601187],[16.695166951669535,68.4059482274905],[16.17316173161734,68.31722109184707],[16.43956439564397,68.22563179053775],[16.345963459634618,68.08252350724192],[16.500765007650102,68.01669369692583],[16.46476464764649,67.89934490462325],[16.302763027630306,67.99379637159849],[16.23796237962381,67.8836029934607],[16.043560435604377,68.02957344242245],[16.09756097560978,68.17268172571829],[15.507155071550727,68.13261140639545],[15.280352803528046,68.03672885658725],[15.967959679596817,68.00810719992808],[15.301953019530231,67.8907584076255],[14.99954999549999,67.89505165612437],[14.790747907479101,67.82349751447646],[15.013950139501418,67.7462190414967],[14.837548375483777,67.6431810775237],[15.38475384753849,67.80346235481504],[15.597155971559744,67.74908120716262],[15.197551975519787,67.64461216035666],[15.265952659526619,67.52440120238816],[15.00675006750069,67.56304043887803],[14.725947259472605,67.48862413156421],[15.04995049950503,67.4471227294084],[14.82314823148235,67.37843075342641],[14.653946539465409,67.42565648691404],[14.329943299433012,67.24104680146242],[14.682746827468293,67.27825495511932],[14.675546755467565,67.21671839330212],[15.165151651516538,67.31116986027737],[14.89874898748991,67.14230208598829],[14.779947799478009,67.2138562276362],[14.36234362343626,67.15947507998379],[14.221942219422203,66.98202080869696],[13.588335883358866,66.93765724087524],[13.80073800738009,66.808859785909],[13.54153541535419,66.80313545457716],[13.480334803348057,66.67576908244388],[13.249932499325013,66.63283659745512],[13.170731707317088,66.41244984117954],[13.001530015300176,66.35663761069416],[13.321933219332209,66.30082538020879],[13.03033030330306,66.19778741623578],[13.57393573935741,66.28937671754512],[13.973539735397367,66.23785773555862],[13.527135271352734,66.24071990122454],[12.868328683286848,66.13481977158563],[12.713527135271363,66.04179938744333],[13.023130231302332,66.06755887843659],[12.789127891278923,65.96452091446358],[12.349923499235018,65.63823402854908],[12.403924039240422,65.53519606457608],[12.573125731257335,65.5895772122285],[12.641526415264167,65.41641618944054],[12.346323463234654,65.26758357481287],[12.501125011250139,65.14451045117846],[12.933129331293344,65.33341338512896],[12.605526055260583,65.12590637435],[12.151921519215222,65.0400414043725],[11.979119791197945,65.06866306103167],[11.561515615156168,64.95274535156204],[11.69831698316986,64.9126750322392],[11.694716947169496,64.91124394940626],[11.813518135181369,64.8955020382437],[11.816770723934091,64.88499668999147],[12.925676145774485,64.05902957763163],[13.211252852168155,64.09556692326777],[13.716413154938838,64.04620614524235],[13.967557064061047,64.00790244344049],[14.157719205213425,64.19527571602815],[14.114023722627877,64.46391541364399],[13.642336423364242,64.58352598065879],[14.326758158719665,65.12035624515514],[14.379640722349183,65.2451590953208],[14.504443572514843,65.30861817167623],[14.495982362334122,65.51591782110393],[14.536173110692554,65.69360323489911],[14.625283872217643,65.81310413030512],[14.518266646852341,66.12960188191741],[15.037414037986153,66.15464846657737],[15.485061313574022,66.28266270570329],[15.457287907031832,66.34475494001927],[15.37203343028456,66.48508584208417],[15.62424800375494,66.59575142023954],[16.03602689921678,66.91230644612583],[16.388612578455984,67.0435609690543],[16.40662790513244,67.2056989091424],[16.100367351632695,67.43732453783967],[16.1569869497587,67.51968031693204],[16.41434875942235,67.53512202551185],[16.738624639598548,67.91087026762078],[17.1864341884133,68.05499288103243],[17.28423167608549,68.11933333344834],[17.893978939789406,67.9694679634382],[18.154114592748627,68.1939682582508],[18.105215848912536,68.40757856027163],[18.128378411782265,68.53368584700682],[18.41147640241228,68.58001097274628],[18.620697672463567,68.50600388368436],[18.985090191974898,68.5174358058651],[19.925365791341388,68.35453091478945],[20.222595768040826,68.49028499068584],[19.94251367461251,68.55601854322514],[20.205628368198656,68.66719672696222],[20.338348286666925,68.80461469564175],[20.30663644774088,68.92441497602903],[20.06468686186067,69.04773879407477],[20.549205472874075,69.05991811650836],[20.716311509735295,69.11894342784908],[21.060231227973638,69.03546084064185],[21.106610443088766,69.10324584734857],[21.00314911706271,69.22169122748875],[21.27785677582155,69.31016849940069],[21.627347693939456,69.2765760708835],[22.177067081665555,68.95431167896626],[22.18985008995352,68.91596265410237],[22.339593901326825,68.82739466810719],[22.375203710129014,68.71691295361835],[22.534047289609212,68.7441817562398],[22.790809407068892,68.68582672954442],[23.04090237862053,68.69082858897545],[23.196831968319714,68.61774848676833],[23.733237332373335,68.71506211940948],[23.927639276392796,68.81666900054952],[24.662046620466214,68.66640530308891],[24.906849068490715,68.55764300778407],[24.982449824498275,68.6148863211024],[25.133651336513395,68.64780122626044],[25.14445144451446,68.66783638592187],[25.202052020520227,68.81237575205066],[25.601656016560185,68.8724812310349],[25.727657276572785,68.94260428984987],[25.79965799657998,69.01272734866481],[25.74925749257494,69.05995308215245],[25.734857348573513,69.19161270278462],[25.878858788587905,69.37049805690441],[25.893258932589333,69.49070901487292],[25.886058860588633,69.52076175436503],[26.03366033660339,69.69678494281891],[26.181261812618146,69.71109577114848],[26.22446224462246,69.73256201364288],[26.50166501665018,69.91860278192746],[26.706867068670704,69.93577577592293],[27.099270992709933,69.90142978793196],[27.444874448744514,70.003036669072],[27.898478984789875,70.07029756222104],[28.380883808838092,69.82272023211925],[29.147691476914787,69.66387003766087],[29.345693456934583,69.46494952387965],[28.852488524885274,69.20306136544829],[28.808359754505304,69.11117969736598],[28.929461408088272,69.05084435394387],[29.041943726896648,69.01076444724204]]],[[[13.480334803348057,68.18699255404786],[13.642336423364242,68.07107484457825],[13.77553775537757,68.15980198022166],[14.034740347403499,68.18126822271603],[13.984339843398459,68.33725625150849],[13.645936459364606,68.29289268368679],[13.480334803348057,68.18699255404786]]],[[[12.259922599226002,65.14737261684438],[12.19152191521917,65.21320242716045],[12.000720007200101,65.0743873923635],[12.259922599226002,65.14737261684438]]],[[[12.396723967239694,65.50800549074988],[12.123121231212338,65.35774179328925],[12.079920799208026,65.21463350999342],[12.490324903249046,65.38779453278137],[12.396723967239694,65.50800549074988]]],[[[12.735127351273547,65.97596957712724],[12.472324723247254,65.98026282562613],[12.49392493924941,65.88008702731904],[12.735127351273547,65.97596957712724]]],[[[12.605526055260583,66.1806144222403],[12.295922959229614,66.01460881361713],[12.645126451264531,66.11335352909124],[12.605526055260583,66.1806144222403]]],[[[14.239942399424024,67.11511151216207],[13.991539915399187,67.07790335850517],[14.207542075420776,67.00921138252316],[14.239942399424024,67.11511151216207]]],[[[15.154351543515446,68.43886313264854],[14.653946539465409,68.42884555281782],[14.383943839438416,68.37303332233245],[14.495544955449589,68.31579000901412],[14.196741967419683,68.15264656605687],[14.761947619476217,68.25854669569578],[15.154351543515446,68.43886313264854]]],[[[16.403564035640386,68.42884555281782],[16.342363423634254,68.53760784812266],[16.093960939609417,68.39736173049275],[16.403564035640386,68.42884555281782]]],[[[14.761947619476217,68.49467536313391],[14.99954999549999,68.55478084211816],[14.603546035460369,68.55907409061703],[14.761947619476217,68.49467536313391]]],[[[17.105571055710584,68.75799460439825],[17.015570155701568,68.85960148553829],[16.84276842768429,68.72507969924021],[17.105571055710584,68.75799460439825]]],[[[15.906759067590684,68.95691511817944],[15.64395643956442,68.95405295251354],[15.453154531545323,68.81094466921769],[15.514355143551455,68.63635256359677],[15.237152371523734,68.56479842194886],[15.269552695526983,68.46176045797587],[15.010350103501054,68.31435892618116],[15.35955359553597,68.354429245504],[15.625956259562628,68.30004809785157],[15.748357483574864,68.42598338715192],[15.967959679596817,68.39306848199386],[16.093960939609417,68.5333145996238],[16.48276482764831,68.54762542795336],[16.576365763657662,68.70790670524471],[16.25596255962563,68.90253397052703],[16.108361083610845,68.74082161040275],[15.816758167581696,68.61059307260354],[15.989559895598973,68.76371893573008],[15.863558635586372,68.78232301255852],[15.906759067590684,68.95691511817944]]],[[[15.193951939519422,68.9340177928521],[15.00675006750069,68.98124352633974],[15.00675006750069,68.79377167522219],[14.369543695436988,68.68787154558328],[15.064350643506458,68.57910925027846],[15.337953379533815,68.65352555759227],[15.294752947529503,68.9068272190259],[15.193951939519422,68.9340177928521]]],[[[15.816758167581696,69.02417601132848],[16.06156061560617,69.14438696929699],[16.101161011610145,69.31468582641904],[15.56835568355686,69.10574773280712],[15.424354243542467,68.96263944951127],[15.816758167581696,69.02417601132848]]],[[[17.735577355773586,69.55224557669013],[17.64557645576457,69.46208735821375],[17.31797317973181,69.53507258269462],[17.389973899739005,69.38051563673511],[16.939969399694007,69.39768863073061],[17.130771307713104,69.31039257792017],[16.90036900369006,69.19447486845053],[17.055170551705544,69.13293830663332],[16.8247682476825,69.05422875082061],[17.48717487174875,69.15440454912769],[17.958779587795902,69.18016404012096],[17.9047790477905,69.3189790749179],[18.084780847808503,69.35189398007594],[18.04878048780489,69.49643334620475],[17.735577355773586,69.55224557669013]]],[[[18.840788407884105,69.87853246260462],[18.790387903879065,69.78408099562935],[18.35838358383586,69.79266749262712],[18.185581855818583,69.70823360548258],[18.19278192781931,69.53077933419573],[18.822788227882313,69.59088481318],[18.804788047880493,69.68104303165637],[19.035190351903537,69.74401067630654],[18.840788407884105,69.87853246260462]]],[[[30.02250022500226,69.83703106044882],[29.87849878498787,69.91430953342856],[29.71289712897132,69.76404583596795],[30.02250022500226,69.83703106044882]]],[[[19.67599675996763,69.85563513727729],[19.855998559985608,69.97298392957987],[19.53199531995321,69.9200338647604],[19.67599675996763,69.85563513727729]]],[[[19.22239222392227,70.07315972788695],[18.729187291872933,69.9472244385866],[19.12159121591219,69.78837424412825],[19.40599405994061,69.83846214328179],[19.58239582395825,69.99301908924127],[19.22239222392227,70.07315972788695]]],[[[20.77040770407706,70.11609221287569],[20.824408244082463,70.1948017686884],[20.58680586805869,70.2363031708442],[20.388803888038893,70.10321246737908],[20.58680586805869,70.04596915406074],[20.77040770407706,70.11609221287569]]],[[[19.20439204392045,70.25490724767266],[18.99558995589959,70.15186928369965],[19.225992259922606,70.13469628970415],[19.20439204392045,70.25490724767266]]],[[[19.70119701197015,70.2506139991738],[19.819998199982024,70.06027998239031],[20.154801548015513,70.11323004720978],[19.81639816398166,70.16904227769516],[19.70119701197015,70.2506139991738]]],[[[22.692826928269312,70.38513578547187],[22.444424444244476,70.29211540132957],[23.002430024300253,70.24918291634083],[22.692826928269312,70.38513578547187]]],[[[23.50283502835029,70.6169712044111],[22.89802898028981,70.45096559578795],[23.103231032310333,70.28352890433183],[23.380433804338054,70.31787489232283],[23.66123661236614,70.46956967261642],[23.50283502835029,70.6169712044111]]],[[[23.819638196381987,70.70999158855341],[23.639636396363983,70.70283617438861],[23.751237512375155,70.52395082026882],[24.129241292412956,70.61983337007703],[23.819638196381987,70.70999158855341]]],[[[23.39483394833951,70.84308229201852],[23.330033300333014,70.77868356453541],[22.826028260282612,70.6484550267362],[22.37242372423725,70.69854292588974],[22.01242012420127,70.5997982104156],[22.332823328233303,70.61267795591223],[22.142021420214235,70.48244941811302],[22.869228692286953,70.53969273143136],[23.272432724327274,70.68136993189424],[23.39483394833951,70.84308229201852]]],[[[25.677256772567745,71.16078268093528],[25.292052920529215,71.04486497146564],[25.533255332553352,70.93180942766193],[26.181261812618146,71.00336356930987],[25.889658896588998,71.05202038563044],[25.677256772567745,71.16078268093528]]]]}},{"type":"Feature","properties":{"zoneName":"NO-NO5","countryKey":"NO","countryName":"Norway"},"geometry":{"type":"MultiPolygon","coordinates":[[[[8.404284042840459,61.48236948163809],[7.295472954729576,61.83870910704472],[6.697866978669822,61.19185966654756],[6.665466654666574,61.194721832213474],[6.575465754657557,61.0630622115813],[6.413464134641373,61.06878654291313],[6.370263702637061,61.05590679741651],[5.113851138511421,60.961455330441254],[5.056250562505653,60.957162081942386],[5.045450454504561,60.844106538138675],[5.293852938529398,60.822640295644305],[5.30465304653049,60.71244691750651],[4.926649266492689,60.79974297031697],[5.301053010530126,60.56075213721293],[5.693456934569383,60.75251723682935],[5.707857078570811,60.470593918736554],[5.617856178561823,60.4176438539171],[5.541316440354774,60.44457261500616],[5.675456754567563,60.47345608440247],[5.686256862568655,60.67666984668256],[5.322653226532282,60.546441308883345],[5.418435160132559,60.48780559064648],[5.30465304653049,60.52783723205489],[5.178651786517889,60.38902219725793],[5.221852218522201,60.211567925971096],[5.842997085264626,60.111501203936854],[6.190261902619056,60.35467620926693],[6.561065610656129,60.463438504571755],[6.676266762667638,60.43624793074555],[6.528665286652881,60.164342192483474],[6.525065250652517,60.14573811565501],[6.541378043022702,60.14697004502801],[8.685086850868544,60.23017200279955],[9.484294842948458,60.2731044877883],[9.60309603096033,60.307450475779305],[8.109081090810946,61.19901508071234],[8.404284042840459,61.48236948163809]]],[[[6.510665106651089,60.144307032822056],[6.640266402664054,60.41621277108413],[6.503465034650361,60.43052359941372],[6.14346143461438,60.215861174469964],[6.107461074610768,60.13428945299134],[6.107461074610768,60.128565121659506],[6.510665106651089,60.144307032822056]]],[[[5.092250922509237,60.320330221275924],[4.969849698497001,60.44340334491035],[4.941049410494117,60.29170856461677],[5.092250922509237,60.320330221275924]]]]}}]}
